[{"OBJECT_NAME":"YAOGAN-43 01G","OBJECT_ID":"2024-148G","EPOCH":"2026-03-09T10:38:37.087584","MEAN_MOTION":15.28332833,"ECCENTRICITY":0.00073829,"INCLINATION":35.0006,"RA_OF_ASC_NODE":62.0013,"ARG_OF_PERICENTER":306.3543,"MEAN_ANOMALY":53.6492,"EPHEMERIS_TYPE":0,"CLASSIFICATION_TYPE":"U","NORAD_CAT_ID":60464,"ELEMENT_SET_NO":999,"REV_AT_EPOCH":8700,"BSTAR":0.00035872736,"MEAN_MOTION_DOT":0.00010133,"MEAN_MOTION_DDOT":0},{"OBJECT_NAME":"STARLINK-35091","OBJECT_ID":"2025-210U","EPOCH":"2026-03-09T22:48:44.945280","MEAN_MOTION":15.30212641,"ECCENTRICITY":0.00013612,"INCLINATION":53.1582,"RA_OF_ASC_NODE":305.6845,"ARG_OF_PERICENTER":110.4147,"MEAN_ANOMALY":249.7,"EPHEMERIS_TYPE":0,"CLASSIFICATION_TYPE":"U","NORAD_CAT_ID":65640,"ELEMENT_SET_NO":999,"REV_AT_EPOCH":2777,"BSTAR":0.00057092608,"MEAN_MOTION_DOT":0.00016594,"MEAN_MOTION_DDOT":0}]
